{"fetched_at":"2026-03-29T16:36:15Z","count":15609,"tles":[{"name":"STARLINK-33869","line1":"1 63790U 25091R   26087.90353196  .00022086  00000+0  80924-3 0  9994","line2":"2 63790  43.0007 303.7596 0001317 273.6063  86.4638 15.27598427 51790","category":"Starlink"}]}