{
  "norad_id": 63790,
  "name": "STARLINK-33869",
  "history": [
    {
      "epoch": "2026-03-28T21:41:05.161344Z",
      "apogee_km": 483.8975304693322,
      "perigee_km": 482.0903085851287,
      "latitude_deg": 1.1033635584114452e-06,
      "longitude_deg": 152.17079791145602,
      "height_km": 482.71379675215127,
      "semi_major_axis_km": 6861.13091952723,
      "eccentricity": 0.0001317,
      "inclination_deg": 43.0007,
      "raan_deg": 303.7596,
      "arg_perigee_deg": 273.6063,
      "mean_anomaly_deg": 86.4638,
      "mean_motion_rev_day": 15.27598427
    }
  ]
}